NORAD_CAT_ID,OBJECT_NAME,OBJECT_TYPE,EPOCH,MEAN_MOTION,ECCENTRICITY,INCLINATION,RA_OF_ASC_NODE,ARG_OF_PERICENTER,MEAN_ANOMALY,BSTAR,MEAN_MOTION_DOT,MEAN_MOTION_DDOT,TLE_LINE0,TLE_LINE1,TLE_LINE2,SEMIMAJOR_AXIS,PERIOD,APOGEE,PERIGEE,DECAYED
51722.0,STARLINK-3535,PAYLOAD,2023-06-06 23:55:54,15.0883387,0.0001046,53.2157,168.3386,88.3943,271.7169,2.2564e-05,7.1e-07,0.0,0 STARLINK-3535,1 51722U 22016J   23157.99716041  .00000071  00000-0  22564-4 0  9994,2 51722  53.2157 168.3386 0001046  88.3943 271.7169 15.08833870 72503,6917.899,95.438,540.488,539.041,0.0
51722.0,STARLINK-3535,PAYLOAD,2023-06-07 06:17:27,15.0883508,0.0001055,53.2157,167.1492,89.3063,270.805,3.1526e-05,2.14e-06,0.0,0 STARLINK-3535,1 51722U 22016J   23158.26212026  .00000214  00000-0  31526-4 0  9996,2 51722  53.2157 167.1492 0001055  89.3063 270.8050 15.08835080 71482,6917.895,95.438,540.49,539.031,0.0
51722.0,STARLINK-3535,PAYLOAD,2023-06-07 17:25:09,15.08836387,0.0001048,53.2155,165.068,91.808,268.3033,4.681e-05,4.57e-06,0.0,0 STARLINK-3535,1 51722U 22016J   23158.72580013  .00000457  00000-0  46810-4 0  9992,2 51722  53.2155 165.0680 0001048  91.8080 268.3033 15.08836387 71557,6917.891,95.438,540.481,539.031,0.0
51722.0,STARLINK-3535,PAYLOAD,2023-06-08 09:19:00,15.08840633,0.0001054,53.2153,162.0937,88.0627,272.0486,7.7926e-05,9.53e-06,0.0,0 STARLINK-3535,1 51722U 22016J   23159.38819758  .00000953  00000-0  77926-4 0  9999,2 51722  53.2153 162.0937 0001054  88.0627 272.0486 15.08840633 72711,6917.878,95.438,540.473,539.014,0.0
51722.0,STARLINK-3535,PAYLOAD,2023-06-09 07:34:24,15.08840299,0.0001084,53.2153,157.9299,88.7603,271.3513,7.0095e-05,8.28e-06,0.0,0 STARLINK-3535,1 51722U 22016J   23160.31555876  .00000828  00000-0  70095-4 0  9993,2 51722  53.2153 157.9299 0001084  88.7603 271.3513 15.08840299 71797,6917.879,95.438,540.494,538.995,0.0
51722.0,STARLINK-3535,PAYLOAD,2023-06-09 17:06:43,15.0884038,0.0001078,53.2152,156.1457,87.9265,272.185,5.4697e-05,5.83e-06,0.0,0 STARLINK-3535,1 51722U 22016J   23160.71299904  .00000583  00000-0  54697-4 0  9992,2 51722  53.2152 156.1457 0001078  87.9265 272.1850 15.08840380 72910,6917.879,95.438,540.49,538.998,0.0
51722.0,STARLINK-3535,PAYLOAD,2023-06-10 05:49:48,15.08841676,0.0001124,53.2153,153.7669,89.0832,271.0289,3.3167e-05,2.4e-06,0.0,0 STARLINK-3535,1 51722U 22016J   23161.24291893  .00000240  00000-0  33167-4 0  9999,2 51722  53.2153 153.7669 0001124  89.0832 271.0289 15.08841676 71938,6917.875,95.437,540.518,538.963,0.0
51722.0,STARLINK-3535,PAYLOAD,2023-06-10 23:19:02,15.08840327,0.0001139,53.2157,150.4952,90.7425,269.3698,3.225e-05,2.25e-06,0.0,0 STARLINK-3535,1 51722U 22016J   23161.97155930  .00000225  00000-0  32250-4 0  9995,2 51722  53.2157 150.4952 0001139  90.7425 269.3698 15.08840327 73101,6917.879,95.438,540.532,538.956,0.0
51722.0,STARLINK-3535,PAYLOAD,2023-06-11 05:40:35,15.08842102,0.0001142,53.2156,149.3061,89.723,270.3893,4.5535e-05,4.37e-06,0.0,0 STARLINK-3535,1 51722U 22016J   23162.23651774  .00000437  00000-0  45535-4 0  9997,2 51722  53.2156 149.3061 0001142  89.7230 270.3893 15.08842102 72082,6917.874,95.437,540.529,538.949,0.0
51722.0,STARLINK-3535,PAYLOAD,2023-06-12 02:20:36,15.08839628,0.0001152,53.2156,145.4401,90.3546,269.7579,4.2503e-05,3.89e-06,0.0,0 STARLINK-3535,1 51722U 22016J   23163.09763904  .00000389  00000-0  42503-4 0  9999,2 51722  53.2156 145.4401 0001152  90.3546 269.7579 15.08839628 72213,6917.882,95.438,540.543,538.95,0.0
51722.0,STARLINK-3535,PAYLOAD,2023-06-12 05:31:22,15.08841427,0.0001168,53.2159,144.8458,90.4985,269.6141,4.7563e-05,4.69e-06,0.0,0 STARLINK-3535,1 51722U 22016J   23163.23011774  .00000469  00000-0  47563-4 0  9996,2 51722  53.2159 144.8458 0001168  90.4985 269.6141 15.08841427 73299,6917.876,95.437,540.549,538.933,0.0
51722.0,STARLINK-3535,PAYLOAD,2023-06-12 23:00:37,15.08834849,0.0001183,53.2158,141.5747,90.447,269.6657,-5.262e-06,-3.72e-06,0.0,0 STARLINK-3535,1 51722U 22016J   23163.95876478 -.00000372  00000-0 -52620-5 0  9991,2 51722  53.2158 141.5747 0001183  90.4470 269.6657 15.08834849 72346,6917.896,95.438,540.58,538.943,0.0
51722.0,STARLINK-3535,PAYLOAD,2023-06-13 05:22:09,15.08836284,0.0001207,53.2157,140.3845,92.3223,267.7908,4.0056e-06,-2.24e-06,0.0,0 STARLINK-3535,1 51722U 22016J   23164.22372383 -.00000224  00000-0  40056-5 0  9993,2 51722  53.2157 140.3845 0001207  92.3223 267.7908 15.08836284 73440,6917.892,95.438,540.592,538.922,0.0
51722.0,STARLINK-3535,PAYLOAD,2023-06-13 21:16:00,15.08838444,0.0001237,53.2169,137.414,102.5539,257.5591,3.7697e-05,3.12e-06,0.0,0 STARLINK-3535,1 51722U 22016J   23164.88612261  .00000312  00000-0  37697-4 0  9990,2 51722  53.2169 137.4140 0001237 102.5539 257.5591 15.08838444 72483,6917.885,95.438,540.606,538.894,0.0
51722.0,STARLINK-3535,PAYLOAD,2023-06-14 08:23:42,15.08841591,0.000125,53.217,135.333,103.4301,256.6831,6.0331e-05,6.72e-06,0.0,0 STARLINK-3535,1 51722U 22016J   23165.34980013  .00000672  00000-0  60331-4 0  9995,2 51722  53.2170 135.3330 0001250 103.4301 256.6831 15.08841591 73615,6917.876,95.437,540.605,538.876,0.0
51722.0,STARLINK-3535,PAYLOAD,2023-06-15 03:28:21,15.08830692,0.0001165,53.2169,131.7635,99.4436,260.6688,2.0615e-05,4e-07,0.0,0 STARLINK-3535,1 51722U 22016J   23166.14469183  .00000040  00000-0  20615-4 0  9994,2 51722  53.2169 131.7635 0001165  99.4436 260.6688 15.08830692 73737,6917.909,95.438,540.58,538.968,0.0
51722.0,STARLINK-3535,PAYLOAD,2023-06-15 06:39:07,15.08831443,0.0001157,53.2168,131.1686,97.7737,262.3387,2.4381e-05,1e-06,0.0,0 STARLINK-3535,1 51722U 22016J   23166.27717196  .00000100  00000-0  24381-4 0  9999,2 51722  53.2168 131.1686 0001157  97.7737 262.3387 15.08831443 72696,6917.907,95.438,540.572,538.971,0.0
51722.0,STARLINK-3535,PAYLOAD,2023-06-16 01:43:44,15.0884394,0.000106,53.2163,127.5987,97.864,262.2472,5.1028e-05,5.24e-06,0.0,0 STARLINK-3535,1 51722U 22016J   23167.07204478  .00000524  00000-0  51028-4 0  9990,2 51722  53.2163 127.5987 0001060  97.8640 262.2472 15.08843940 73871,6917.868,95.437,540.467,539.0,0.0
51722.0,STARLINK-3535,PAYLOAD,2023-06-16 06:29:53,15.08849406,0.0001132,53.2163,126.7076,94.5185,265.5937,0.00011555,1.552e-05,0.0,0 STARLINK-3535,1 51722U 22016J   23167.27075942  .00001552  00000-0  11555-3 0  9996,2 51722  53.2163 126.7076 0001132  94.5185 265.5937 15.08849406 72840,6917.852,95.437,540.5,538.934,0.0
51722.0,STARLINK-3535,PAYLOAD,2023-06-16 14:26:50,15.08835912,0.0001259,53.2164,125.2208,82.7022,277.4113,2.2075e-05,6.3e-07,0.0,0 STARLINK-3535,1 51722U 22016J   23167.60197168  .00000063  00000-0  22075-4 0  9994,2 51722  53.2164 125.2208 0001259  82.7022 277.4113 15.08835912 73959,6917.893,95.438,540.629,538.887,0.0
51722.0,STARLINK-3535,PAYLOAD,2023-06-17 04:45:18,15.08835993,0.0001115,53.2164,122.5443,84.3581,275.7538,7.1397e-05,8.49e-06,0.0,0 STARLINK-3535,1 51722U 22016J   23168.19813255  .00000849  00000-0  71397-4 0  9994,2 51722  53.2164 122.5443 0001115  84.3581 275.7538 15.08835993 72982,6917.893,95.438,540.529,538.986,0.0
51722.0,STARLINK-3535,PAYLOAD,2023-06-17 20:39:09,15.08841926,0.0001123,53.2161,119.5716,81.8692,278.2428,1.463e-05,-5.5e-07,0.0,0 STARLINK-3535,1 51722U 22016J   23168.86053226 -.00000055  00000-0  14630-4 0  9999,2 51722  53.2161 119.5716 0001123  81.8692 278.2428 15.08841926 73083,6917.875,95.437,540.516,538.963,0.0
51722.0,STARLINK-3535,PAYLOAD,2023-06-18 03:00:42,15.08847258,0.0001188,53.2164,118.38,85.9074,274.2053,4.571e-05,4.4e-06,0.0,0 STARLINK-3535,1 51722U 22016J   23169.12548805  .00000440  00000-0  45710-4 0  9991,2 51722  53.2164 118.3800 0001188  85.9074 274.2053 15.08847258 74183,6917.858,95.437,540.545,538.901,0.0
51722.0,STARLINK-3535,PAYLOAD,2023-06-18 06:11:28,15.08847877,0.0001202,53.2163,117.7852,86.808,273.305,5.3229e-05,5.6e-06,0.0,0 STARLINK-3535,1 51722U 22016J   23169.25796742  .00000560  00000-0  53229-4 0  9997,2 51722  53.2163 117.7852 0001202  86.8080 273.3050 15.08847877 73145,6917.856,95.437,540.553,538.89,0.0
51722.0,STARLINK-3535,PAYLOAD,2023-06-18 14:08:23,15.08847633,0.0001113,53.2165,116.2981,93.0637,267.0483,2.4061e-05,9.5e-07,0.0,0 STARLINK-3535,1 51722U 22016J   23169.58916648  .00000095  00000-0  24061-4 0  9997,2 51722  53.2165 116.2981 0001113  93.0637 267.0483 15.08847633 73198,6917.857,95.437,540.492,538.952,0.0
51722.0,STARLINK-3535,PAYLOAD,2023-06-19 02:51:29,15.08842248,0.0001177,53.2164,113.9191,86.5834,273.5293,0.00014662,2.047e-05,0.0,0 STARLINK-3535,1 51722U 22016J   23170.11908836  .00002047  00000-0  14662-3 0  9992,2 51722  53.2164 113.9191 0001177  86.5834 273.5293 15.08842248 74335,6917.874,95.437,540.553,538.924,0.0
51722.0,STARLINK-3535,PAYLOAD,2023-06-19 06:02:15,15.08848232,0.0001174,53.2164,113.3244,88.3186,271.7941,0.00016905,2.404e-05,0.0,0 STARLINK-3535,1 51722U 22016J   23170.25156375  .00002404  00000-0  16905-3 0  9999,2 51722  53.2164 113.3244 0001174  88.3186 271.7941 15.08848232 73298,6917.855,95.437,540.532,538.908,0.0
51722.0,STARLINK-3535,PAYLOAD,2023-06-20 02:42:16,15.08842715,0.0001629,53.2172,109.4576,93.491,266.6269,-2.9425e-06,-3.35e-06,0.0,0 STARLINK-3535,1 51722U 22016J   23171.11269102 -.00000335  00000-0 -29425-5 0  9994,2 51722  53.2172 109.4576 0001629  93.4910 266.6269 15.08842715 74486,6917.872,95.437,540.864,538.61,0.0
51722.0,STARLINK-3535,PAYLOAD,2023-06-20 05:53:02,15.08840511,0.0001301,53.2167,108.8629,94.511,265.603,1.2487e-05,-8.9e-07,0.0,0 STARLINK-3535,1 51722U 22016J   23171.24517126 -.00000089  00000-0  12487-4 0  9994,2 51722  53.2167 108.8629 0001301  94.5110 265.6030 15.08840511 73445,6917.879,95.438,540.644,538.844,0.0
51722.0,STARLINK-3535,PAYLOAD,2023-06-20 20:11:31,15.08836523,0.0001375,53.2171,106.1869,97.0037,263.1111,-1.588e-05,-5.41e-06,0.0,0 STARLINK-3535,1 51722U 22016J   23171.84133537 -.00000541  00000-0 -15880-4 0  9994,2 51722  53.2171 106.1869 0001375  97.0037 263.1111 15.08836523 73535,6917.891,95.438,540.707,538.805,0.0
